[{"OBJECT_NAME":"STARLINK-5736","OBJECT_ID":"2023-020R","EPOCH":"2026-03-09T22:00:01.999584","MEAN_MOTION":15.10700705,"ECCENTRICITY":0.00015383,"INCLINATION":43.0001,"RA_OF_ASC_NODE":3.1577,"ARG_OF_PERICENTER":270.962,"MEAN_ANOMALY":184.2536,"EPHEMERIS_TYPE":0,"CLASSIFICATION_TYPE":"U","NORAD_CAT_ID":55584,"ELEMENT_SET_NO":999,"REV_AT_EPOCH":578,"BSTAR":0.00096388062,"MEAN_MOTION_DOT":0.00016061,"MEAN_MOTION_DDOT":0},{"OBJECT_NAME":"NANOFF A","OBJECT_ID":"2023-185T","EPOCH":"2026-03-09T23:34:34.415328","MEAN_MOTION":15.11542977,"ECCENTRICITY":0.00086783,"INCLINATION":97.5359,"RA_OF_ASC_NODE":137.8345,"ARG_OF_PERICENTER":292.8968,"MEAN_ANOMALY":67.1346,"EPHEMERIS_TYPE":0,"CLASSIFICATION_TYPE":"U","NORAD_CAT_ID":58810,"ELEMENT_SET_NO":999,"REV_AT_EPOCH":11805,"BSTAR":0.00027314844,"MEAN_MOTION_DOT":4.57e-5,"MEAN_MOTION_DDOT":0}]
